[{"OBJECT_NAME":"STARLINK-6104","OBJECT_ID":"2023-046AM","EPOCH":"2026-03-08T13:53:57.664896","MEAN_MOTION":15.02539221,"ECCENTRICITY":0.00012202,"INCLINATION":43.0037,"RA_OF_ASC_NODE":152.1144,"ARG_OF_PERICENTER":269.6844,"MEAN_ANOMALY":90.3859,"EPHEMERIS_TYPE":0,"CLASSIFICATION_TYPE":"U","NORAD_CAT_ID":56127,"ELEMENT_SET_NO":999,"REV_AT_EPOCH":16204,"BSTAR":4.3048361e-5,"MEAN_MOTION_DOT":3.78e-6,"MEAN_MOTION_DDOT":0},{"OBJECT_NAME":"COSMOS 249 DEB","OBJECT_ID":"1968-091AE","EPOCH":"2026-03-09T17:26:31.463520","MEAN_MOTION":13.99879612,"ECCENTRICITY":0.04806637,"INCLINATION":62.7505,"RA_OF_ASC_NODE":261.8098,"ARG_OF_PERICENTER":229.6626,"MEAN_ANOMALY":126.1503,"EPHEMERIS_TYPE":0,"CLASSIFICATION_TYPE":"U","NORAD_CAT_ID":3679,"ELEMENT_SET_NO":999,"REV_AT_EPOCH":77050,"BSTAR":0.0010738877,"MEAN_MOTION_DOT":4.218e-5,"MEAN_MOTION_DDOT":0}]
